[{"OBJECT_NAME":"STARLINK-34990","OBJECT_ID":"2025-179K","EPOCH":"2026-03-09T15:38:25.794816","MEAN_MOTION":15.05652828,"ECCENTRICITY":0.00019326,"INCLINATION":97.6033,"RA_OF_ASC_NODE":112.9434,"ARG_OF_PERICENTER":92.026,"MEAN_ANOMALY":268.1188,"EPHEMERIS_TYPE":0,"CLASSIFICATION_TYPE":"U","NORAD_CAT_ID":65244,"ELEMENT_SET_NO":999,"REV_AT_EPOCH":3187,"BSTAR":0.00051733303,"MEAN_MOTION_DOT":7.412e-5,"MEAN_MOTION_DDOT":0},{"OBJECT_NAME":"FALCON 9 DEB","OBJECT_ID":"2021-041BG","EPOCH":"2026-03-09T15:47:07.516032","MEAN_MOTION":15.0585876,"ECCENTRICITY":0.00124165,"INCLINATION":53.0346,"RA_OF_ASC_NODE":200.9185,"ARG_OF_PERICENTER":159.6872,"MEAN_ANOMALY":200.4613,"EPHEMERIS_TYPE":0,"CLASSIFICATION_TYPE":"U","NORAD_CAT_ID":48607,"ELEMENT_SET_NO":999,"REV_AT_EPOCH":26415,"BSTAR":0.00013916149,"MEAN_MOTION_DOT":1.762e-5,"MEAN_MOTION_DDOT":0}]
